{"type": "FeatureCollection", "features": [ {"type": "Feature", "properties": {"norad_id": 33621, "name": "FENGYUN 1C DEB", "group": "fengyun-1c-debris", "lat": 20.996965095926292, "lon": 33.59586529308937, "alt_km": 837.2740771770668, "timestamp": "2025-12-26T19:22:39.193544+00:00", "meta": {"OBJECT_NAME": "FENGYUN 1C DEB", "OBJECT_ID": "1999-025DDE", "EPOCH": "2025-12-10T20:17:14.702784", "MEAN_MOTION": 14.19482835, "ECCENTRICITY": 0.02846988, "INCLINATION": 98.1391, "RA_OF_ASC_NODE": 195.7496, "ARG_OF_PERICENTER": 300.0128, "MEAN_ANOMALY": 57.3079, "EPHEMERIS_TYPE": 0, "CLASSIFICATION_TYPE": "U", "NORAD_CAT_ID": 33621, "ELEMENT_SET_NO": 999, "REV_AT_EPOCH": 64217, "BSTAR": 0.00099524636, "MEAN_MOTION_DOT": 3.099e-05, "MEAN_MOTION_DDOT": 0}, "tle": {"line1": "1 33621U 99025DDE 25344.84530906  .00003099  00000+0  99525-3 0  9996", "line2": "2 33621  98.1391 195.7496 0284698 300.0128  57.3079 14.19482835642176"}}, "geometry": {"type": "Point", "coordinates": [33.59586529308937, 20.996965095926292]}}, {"type": "Feature", "properties": {"norad_id": 33625, "name": "FENGYUN 1C DEB", "group": "fengyun-1c-debris", "lat": -15.680390575330362, "lon": 114.49603362587125, "alt_km": 738.9158522361731, "timestamp": "2025-12-26T19:22:39.193557+00:00", "meta": {"OBJECT_NAME": "FENGYUN 1C DEB", "OBJECT_ID": "1999-025DDJ", "EPOCH": "2025-12-22T18:29:10.172832", "MEAN_MOTION": 14.61162738, "ECCENTRICITY": 0.02254632, "INCLINATION": 98.6202, "RA_OF_ASC_NODE": 107.8479, "ARG_OF_PERICENTER": 104.3386, "MEAN_ANOMALY": 258.2958, "EPHEMERIS_TYPE": 0, "CLASSIFICATION_TYPE": "U", "NORAD_CAT_ID": 33625, "ELEMENT_SET_NO": 999, "REV_AT_EPOCH": 61537, "BSTAR": 0.0010940286, "MEAN_MOTION_DOT": 7.684e-05, "MEAN_MOTION_DDOT": 0}, "tle": {"line1": "1 33625U 99025DDJ 25356.77025663  .00007684  00000+0  10940-2 0  9991", "line2": "2 33625  98.6202 107.8479 0225463 104.3386 258.2958 14.61162738615371"}}, "geometry": {"type": "Point", "coordinates": [114.49603362587125, -15.680390575330362]}}, {"type": "Feature", "properties": {"norad_id": 33630, "name": "FENGYUN 1C DEB", "group": "fengyun-1c-debris", "lat": 70.61819402862359, "lon": -47.88453935133401, "alt_km": 807.3675235267374, "timestamp": "2025-12-26T19:22:39.193567+00:00", "meta": {"OBJECT_NAME": "FENGYUN 1C DEB", "OBJECT_ID": "1999-025DDP", "EPOCH": "2025-12-25T00:32:20.779008", "MEAN_MOTION": 14.17738798, "ECCENTRICITY": 0.01347576, "INCLINATION": 98.616, "RA_OF_ASC_NODE": 104.8539, "ARG_OF_PERICENTER": 32.9099, "MEAN_ANOMALY": 328.0377, "EPHEMERIS_TYPE": 0, "CLASSIFICATION_TYPE": "U", "NORAD_CAT_ID": 33630, "ELEMENT_SET_NO": 999, "REV_AT_EPOCH": 64585, "BSTAR": 0.000328385, "MEAN_MOTION_DOT": 6.9e-06, "MEAN_MOTION_DDOT": 0}, "tle": {"line1": "1 33630U 99025DDP 25359.02246272  .00000690  00000+0  32839-3 0  9991", "line2": "2 33630  98.6160 104.8539 0134757  32.9099 328.0377 14.17738798645859"}}, "geometry": {"type": "Point", "coordinates": [-47.88453935133401, 70.61819402862359]}}, {"type": "Feature", "properties": {"norad_id": 33633, "name": "FENGYUN 1C DEB", "group": "fengyun-1c-debris", "lat": -51.70844720756917, "lon": -96.26503310142456, "alt_km": 864.9620907123826, "timestamp": "2025-12-26T19:22:39.193582+00:00", "meta": {"OBJECT_NAME": "FENGYUN 1C DEB", "OBJECT_ID": "1999-025DDS", "EPOCH": "2025-12-20T05:05:42.485856", "MEAN_MOTION": 14.19397127, "ECCENTRICITY": 0.00829513, "INCLINATION": 99.057, "RA_OF_ASC_NODE": 88.6497, "ARG_OF_PERICENTER": 129.8844, "MEAN_ANOMALY": 260.3067, "EPHEMERIS_TYPE": 0, "CLASSIFICATION_TYPE": "U", "NORAD_CAT_ID": 33633, "ELEMENT_SET_NO": 999, "REV_AT_EPOCH": 90817, "BSTAR": 0.0014541583, "MEAN_MOTION_DOT": 3.12e-05, "MEAN_MOTION_DDOT": 0}, "tle": {"line1": "1 33633U 99025DDS 25354.21229729  .00003120  00000+0  14542-2 0  9999", "line2": "2 33633  99.0570  88.6497 0082951 129.8844 260.3067 14.19397127908176"}}, "geometry": {"type": "Point", "coordinates": [-96.26503310142456, -51.70844720756917]}}, {"type": "Feature", "properties": {"norad_id": 33637, "name": "FENGYUN 1C DEB", "group": "fengyun-1c-debris", "lat": -81.14106472899455, "lon": 119.06345122381943, "alt_km": 832.8876202339088, "timestamp": "2025-12-26T19:22:39.193594+00:00", "meta": {"OBJECT_NAME": "FENGYUN 1C DEB", "OBJECT_ID": "1999-025DDW", "EPOCH": "2025-12-22T20:31:28.911936", "MEAN_MOTION": 14.36813194, "ECCENTRICITY": 0.008304, "INCLINATION": 98.4926, "RA_OF_ASC_NODE": 41.7001, "ARG_OF_PERICENTER": 121.6537, "MEAN_ANOMALY": 239.2783, "EPHEMERIS_TYPE": 0, "CLASSIFICATION_TYPE": "U", "NORAD_CAT_ID": 33637, "ELEMENT_SET_NO": 999, "REV_AT_EPOCH": 64983, "BSTAR": 0.0011662, "MEAN_MOTION_DOT": 3.541e-05, "MEAN_MOTION_DDOT": 0}, "tle": {"line1": "1 33637U 99025DDW 25356.85519574  .00003541  00000+0  11662-2 0  9992", "line2": "2 33637  98.4926  41.7001 0083040 121.6537 239.2783 14.36813194649839"}}, "geometry": {"type": "Point", "coordinates": [119.06345122381943, -81.14106472899455]}}, {"type": "Feature", "properties": {"norad_id": 33638, "name": "FENGYUN 1C DEB", "group": "fengyun-1c-debris", "lat": -50.61202154859075, "lon": 59.36730575270712, "alt_km": 814.4936540046574, "timestamp": "2025-12-26T19:22:39.193605+00:00", "meta": {"OBJECT_NAME": "FENGYUN 1C DEB", "OBJECT_ID": "1999-025DDX", "EPOCH": "2025-12-22T12:31:35.618592", "MEAN_MOTION": 13.69332139, "ECCENTRICITY": 0.02639098, "INCLINATION": 98.4648, "RA_OF_ASC_NODE": 246.0451, "ARG_OF_PERICENTER": 246.8978, "MEAN_ANOMALY": 110.4157, "EPHEMERIS_TYPE": 0, "CLASSIFICATION_TYPE": "U", "NORAD_CAT_ID": 33638, "ELEMENT_SET_NO": 999, "REV_AT_EPOCH": 61049, "BSTAR": 0.000991659, "MEAN_MOTION_DOT": 1.061e-05, "MEAN_MOTION_DDOT": 0}, "tle": {"line1": "1 33638U 99025DDX 25356.52194003  .00001061  00000+0  99166-3 0  9994", "line2": "2 33638  98.4648 246.0451 0263909 246.8978 110.4157 13.69332139610498"}}, "geometry": {"type": "Point", "coordinates": [59.36730575270712, -50.61202154859075]}}, {"type": "Feature", "properties": {"norad_id": 33639, "name": "FENGYUN 1C DEB", "group": "fengyun-1c-debris", "lat": 4.762744146194346, "lon": -87.22940930541564, "alt_km": 747.2523456336721, "timestamp": "2025-12-26T19:22:39.193615+00:00", "meta": {"OBJECT_NAME": "FENGYUN 1C DEB", "OBJECT_ID": "1999-025DDY", "EPOCH": "2025-12-14T11:30:34.684704", "MEAN_MOTION": 14.40475035, "ECCENTRICITY": 0.00499213, "INCLINATION": 98.7123, "RA_OF_ASC_NODE": 79.4896, "ARG_OF_PERICENTER": 283.4225, "MEAN_ANOMALY": 76.1402, "EPHEMERIS_TYPE": 0, "CLASSIFICATION_TYPE": "U", "NORAD_CAT_ID": 33639, "ELEMENT_SET_NO": 999, "REV_AT_EPOCH": 60607, "BSTAR": 0.0023798225, "MEAN_MOTION_DOT": 7.641e-05, "MEAN_MOTION_DDOT": 0}, "tle": {"line1": "1 33639U 99025DDY 25348.47956811  .00007641  00000+0  23798-2 0  9990", "line2": "2 33639  98.7123  79.4896 0049921 283.4225  76.1402 14.40475035606072"}}, "geometry": {"type": "Point", "coordinates": [-87.22940930541564, 4.762744146194346]}}, {"type": "Feature", "properties": {"norad_id": 33640, "name": "FENGYUN 1C DEB", "group": "fengyun-1c-debris", "lat": -79.82582364736666, "lon": 4.3136254235823825, "alt_km": 806.2768043820142, "timestamp": "2025-12-26T19:22:39.193625+00:00", "meta": {"OBJECT_NAME": "FENGYUN 1C DEB", "OBJECT_ID": "1999-025DDZ", "EPOCH": "2025-12-25T13:52:55.245216", "MEAN_MOTION": 14.4593595, "ECCENTRICITY": 0.0091461, "INCLINATION": 98.8425, "RA_OF_ASC_NODE": 302.873, "ARG_OF_PERICENTER": 121.3276, "MEAN_ANOMALY": 239.6907, "EPHEMERIS_TYPE": 0, "CLASSIFICATION_TYPE": "U", "NORAD_CAT_ID": 33640, "ELEMENT_SET_NO": 999, "REV_AT_EPOCH": 92528, "BSTAR": 0.00047063, "MEAN_MOTION_DOT": 1.713e-05, "MEAN_MOTION_DDOT": 0}, "tle": {"line1": "1 33640U 99025DDZ 25359.57841719  .00001713  00000+0  47063-3 0  9991", "line2": "2 33640  98.8425 302.8730 0091461 121.3276 239.6907 14.45935950925287"}}, "geometry": {"type": "Point", "coordinates": [4.3136254235823825, -79.82582364736666]}}, {"type": "Feature", "properties": {"norad_id": 33648, "name": "FENGYUN 1C DEB", "group": "fengyun-1c-debris", "lat": -80.11126603734067, "lon": 60.78973539249619, "alt_km": 899.1148354843581, "timestamp": "2025-12-26T19:22:39.193635+00:00", "meta": {"OBJECT_NAME": "FENGYUN 1C DEB", "OBJECT_ID": "1999-025DEH", "EPOCH": "2025-12-26T06:10:43.732704", "MEAN_MOTION": 14.11781282, "ECCENTRICITY": 0.00695007, "INCLINATION": 98.7198, "RA_OF_ASC_NODE": 358.5672, "ARG_OF_PERICENTER": 135.9899, "MEAN_ANOMALY": 224.6835, "EPHEMERIS_TYPE": 0, "CLASSIFICATION_TYPE": "U", "NORAD_CAT_ID": 33648, "ELEMENT_SET_NO": 999, "REV_AT_EPOCH": 64567, "BSTAR": 9.831408e-05, "MEAN_MOTION_DOT": 1.41e-06, "MEAN_MOTION_DDOT": 0}, "tle": {"line1": "1 33648U 99025DEH 25360.25745061  .00000141  00000+0  98314-4 0  9999", "line2": "2 33648  98.7198 358.5672 0069500 135.9899 224.6835 14.11781282645671"}}, "geometry": {"type": "Point", "coordinates": [60.78973539249619, -80.11126603734067]}}, {"type": "Feature", "properties": {"norad_id": 33650, "name": "FENGYUN 1C DEB", "group": "fengyun-1c-debris", "lat": -8.21686864000032, "lon": 166.6972332365955, "alt_km": 862.4365906840494, "timestamp": "2025-12-26T19:22:39.193645+00:00", "meta": {"OBJECT_NAME": "FENGYUN 1C DEB", "OBJECT_ID": "1999-025DEK", "EPOCH": "2025-12-24T05:11:24.590112", "MEAN_MOTION": 13.89212225, "ECCENTRICITY": 0.01495912, "INCLINATION": 98.9861, "RA_OF_ASC_NODE": 162.8878, "ARG_OF_PERICENTER": 47.7284, "MEAN_ANOMALY": 313.6448, "EPHEMERIS_TYPE": 0, "CLASSIFICATION_TYPE": "U", "NORAD_CAT_ID": 33650, "ELEMENT_SET_NO": 999, "REV_AT_EPOCH": 68968, "BSTAR": 0.00062187935, "MEAN_MOTION_DOT": 7.85e-06, "MEAN_MOTION_DDOT": 0}, "tle": {"line1": "1 33650U 99025DEK 25358.21625683  .00000785  00000+0  62188-3 0  9995", "line2": "2 33650  98.9861 162.8878 0149591  47.7284 313.6448 13.89212225689682"}}, "geometry": {"type": "Point", "coordinates": [166.6972332365955, -8.21686864000032]}}]}